{"type":"FeatureCollection","features":[{"type":"Feature","id":1,"geometry":{"type":"Point","coordinates":[-82.5899306636175,29.8344265638832]},"properties":{"OBJECTID":1,"FACILITY":"HIGH SPRINGS ELEMENTARY AND MIDDLE SCHOOL","LOGO_URL":"https://cmsv2-assets.apptegy.net/uploads/29903/logo/32716/High_Springs_Hawk_-_Red_Oval_2.png","link":"https://www.alachuaschools.net/o/highsprings","FUNCTION_":"ELEMENTARY/MIDDLE","SCHOOLCODE":"010461","GRADES":"PK-8","FULLADDR":"1015 N MAIN ST"}},{"type":"Feature","id":3,"geometry":{"type":"Point","coordinates":[-82.462772686904,29.6881435818472]},"properties":{"OBJECTID":3,"FACILITY":"MEADOWBROOK ELEMENTARY SCHOOL","LOGO_URL":"https://cmsv2-assets.apptegy.net/uploads/29908/logo/32721/Meadowbrook_Manatee_-_Black_Oval.png","link":"https://www.alachuaschools.net/o/meadowbrook","FUNCTION_":"ELEMENTARY","SCHOOLCODE":"010520","GRADES":"PK-5","FULLADDR":"11525 NW 39TH AV"}},{"type":"Feature","id":4,"geometry":{"type":"Point","coordinates":[-82.5238739447445,29.8063096623575]},"properties":{"OBJECTID":4,"FACILITY":"SANTA FE HIGH SCHOOL","LOGO_URL":"https://cmsv2-assets.apptegy.net/uploads/29941/logo/32754/SFHS_Logo_-_Gray_Oval.png","link":"https://www.alachuaschools.net/o/santa-fe","FUNCTION_":"HIGH","SCHOOLCODE":"010271","GRADES":"9-12","FULLADDR":"16213 NW US HWY 441"}},{"type":"Feature","id":5,"geometry":{"type":"Point","coordinates":[-82.4938181281381,29.8055666616238]},"properties":{"OBJECTID":5,"FACILITY":"MEBANE MIDDLE SCHOOL","LOGO_URL":"https://cmsv2-assets.apptegy.net/uploads/29923/logo/32736/Mebane_Mustang_-_Yellow_Oval.png","link":"https://www.alachuaschools.net/o/mebane","FUNCTION_":"MIDDLE","SCHOOLCODE":"010221","GRADES":"6-8","FULLADDR":"16401 NW 140TH ST"}},{"type":"Feature","id":7,"geometry":{"type":"Point","coordinates":[-82.4923943282561,29.7945569959415]},"properties":{"OBJECTID":7,"FACILITY":"ALACHUA ELEMENTARY SCHOOL","LOGO_URL":"https://cmsv2-assets.apptegy.net/uploads/29897/logo/32710/Alachua_Alligator_-_Black_Oval.png","link":"https://www.alachuaschools.net/o/alachua","FUNCTION_":"ELEMENTARY","SCHOOLCODE":"010161","GRADES":"3-5","FULLADDR":"13800 NW 152ND PL"}},{"type":"Feature","id":8,"geometry":{"type":"Point","coordinates":[-82.3871637870378,29.7074451866493]},"properties":{"OBJECTID":8,"FACILITY":"TALBOT ELEMENTARY SCHOOL","LOGO_URL":"https://cmsv2-assets.apptegy.net/uploads/29915/logo/32728/Talbot_Tiger_-_Orange_Oval_1.png","link":"https://www.alachuaschools.net/o/talbot","FUNCTION_":"ELEMENTARY","SCHOOLCODE":"010561","GRADES":"PK-5","FULLADDR":"5701 NW 43RD ST"}},{"type":"Feature","id":9,"geometry":{"type":"Point","coordinates":[-82.3317951656227,29.6881728198612]},"properties":{"OBJECTID":9,"FACILITY":"FOSTER ELEMENTARY SCHOOL","LOGO_URL":"https://cmsv2-assets.apptegy.net/uploads/29900/logo/32713/Foster_Steamers_-_Blue.png","link":"https://www.alachuaschools.net/o/foster","FUNCTION_":"ELEMENTARY","SCHOOLCODE":"010041","GRADES":"PK-5","FULLADDR":"3800 NW 6TH ST"}},{"type":"Feature","id":10,"geometry":{"type":"Point","coordinates":[-82.3069108299127,29.6842565300407]},"properties":{"OBJECTID":10,"FACILITY":"RAWLINGS ELEMENTARY SCHOOL","LOGO_URL":"https://cmsv2-assets.apptegy.net/uploads/29913/logo/32726/Rawlings_Rockets_1_-_Yellow_Oval_1.png","link":"https://www.alachuaschools.net/o/rawlings","FUNCTION_":"ELEMENTARY","SCHOOLCODE":"010341","GRADES":"PK-5","FULLADDR":"3500 NE 15TH ST"}},{"type":"Feature","id":11,"geometry":{"type":"Point","coordinates":[-82.3647279352062,29.6823831004131]},"properties":{"OBJECTID":11,"FACILITY":"GLEN SPRINGS ELEMENTARY SCHOOL","LOGO_URL":"https://cmsv2-assets.apptegy.net/uploads/29901/logo/32714/Glen_Springs_Tiger_-_Black_Oval.png","link":"https://www.alachuaschools.net/o/glensprings","FUNCTION_":"ELEMENTARY","SCHOOLCODE":"010331","GRADES":"PK-5","FULLADDR":"2826 NW 31ST AV"}},{"type":"Feature","id":12,"geometry":{"type":"Point","coordinates":[-82.4417809484378,29.6732305257616]},"properties":{"OBJECTID":12,"FACILITY":"FT CLARKE MIDDLE SCHOOL","LOGO_URL":"https://cmsv2-assets.apptegy.net/uploads/29920/logo/32733/Fort_Clarke_Falcon_-_Red_Oval_2.png","link":"https://www.alachuaschools.net/o/fort-clarke","FUNCTION_":"MIDDLE","SCHOOLCODE":"010481","GRADES":"6-8","FULLADDR":"9301 NW 23RD AV"}},{"type":"Feature","id":13,"geometry":{"type":"Point","coordinates":[-82.3399507937881,29.6691794153381]},"properties":{"OBJECTID":13,"FACILITY":"GAINESVILLE HIGH SCHOOL","LOGO_URL":"https://cmsv2-assets.apptegy.net/uploads/29937/logo/32750/GHS_Hurricanes_-_Black_Oval.png","link":"https://www.alachuaschools.net/o/ghs","FUNCTION_":"HIGH","SCHOOLCODE":"010151","GRADES":"9-12","FULLADDR":"1900 NW 13TH ST"}},{"type":"Feature","id":14,"geometry":{"type":"Point","coordinates":[-82.3085466323469,29.668875815439]},"properties":{"OBJECTID":14,"FACILITY":"METCALFE ELEMENTARY SCHOOL","LOGO_URL":"https://cmsv2-assets.apptegy.net/uploads/29909/logo/32722/Metcalfe_Wildcat_Head_-_Yellow_Oval_1.png","link":"https://www.alachuaschools.net/o/metcalfe","FUNCTION_":"ELEMENTARY","SCHOOLCODE":"010101","GRADES":"PK-5","FULLADDR":"1250 NE 18TH AV"}},{"type":"Feature","id":15,"geometry":{"type":"Point","coordinates":[-82.314329606947,29.6691534380099]},"properties":{"OBJECTID":15,"FACILITY":"BISHOP MIDDLE SCHOOL","LOGO_URL":"https://cmsv2-assets.apptegy.net/uploads/29919/logo/32732/Howard_Bishop_Hawk_-_Yellow_Oval_2.png","link":"https://www.alachuaschools.net/o/bishop","FUNCTION_":"MIDDLE","SCHOOLCODE":"010121","GRADES":"6-8","FULLADDR":"1901 NE 9TH ST"}},{"type":"Feature","id":16,"geometry":{"type":"Point","coordinates":[-82.3279895591549,29.6670112721895]},"properties":{"OBJECTID":16,"FACILITY":"LANIER CENTER & ANCHOR CENTER","LOGO_URL":"https://cmsv2-assets.apptegy.net/uploads/29944/logo/32757/Sidney_Lanier_Unicorn_-_Red_Oval.png","link":"https://www.alachuaschools.net/o/lanier","FUNCTION_":"CENTER","SCHOOLCODE":"010081","GRADES":"K-12","FULLADDR":"312 NW 16TH AV"}},{"type":"Feature","id":17,"geometry":{"type":"Point","coordinates":[-82.3705562047224,29.6652220754882]},"properties":{"OBJECTID":17,"FACILITY":"WESTWOOD MIDDLE SCHOOL","LOGO_URL":"https://cmsv2-assets.apptegy.net/uploads/29934/logo/32747/Westwood_Whirlwind_-_Black_Oval.png","link":"https://www.alachuaschools.net/o/westwood","FUNCTION_":"MIDDLE","SCHOOLCODE":"010141","GRADES":"6-8","FULLADDR":"3215 NW 15TH AV"}},{"type":"Feature","id":18,"geometry":{"type":"Point","coordinates":[-82.3729005652078,29.6602272370746]},"properties":{"OBJECTID":18,"FACILITY":"LITTLEWOOD ELEMENTARY SCHOOL","LOGO_URL":"https://cmsv2-assets.apptegy.net/uploads/29907/logo/32720/Littlewood_Lion_-_Yellow_Oval_1.png","link":"https://www.alachuaschools.net/o/littlewood","FUNCTION_":"ELEMENTARY","SCHOOLCODE":"010091","GRADES":"PK-5","FULLADDR":"812 NW 34TH ST"}},{"type":"Feature","id":19,"geometry":{"type":"Point","coordinates":[-82.2979828850613,29.6597441809962]},"properties":{"OBJECTID":19,"FACILITY":"DUVAL ELEMENTARY SCHOOL","LOGO_URL":"https://cmsv2-assets.apptegy.net/uploads/29943/logo/32756/Duval_Dragon_-_Black_Oval.png","link":"https://www.alachuaschools.net/o/duval","FUNCTION_":"ELEMENTARY","SCHOOLCODE":"010021","GRADES":"PK-5","FULLADDR":"2106 NE 8TH AV - 1"}},{"type":"Feature","id":20,"geometry":{"type":"Point","coordinates":[-82.3361099180491,29.6579857015276]},"properties":{"OBJECTID":20,"FACILITY":"A. QUINN JONES CENTER","LOGO_URL":"https://cmsv2-assets.apptegy.net/uploads/30360/logo/33174/A._Quinn_Jones_Wildcat_-_Silver_Oval.png","link":"https://www.alachuaschools.net/o/aquinn","FUNCTION_":"CENTER","SCHOOLCODE":"010052","GRADES":"2-12","FULLADDR":"1108 NW 7TH AV"}},{"type":"Feature","id":21,"geometry":{"type":"Point","coordinates":[-82.3489101131113,29.6562659641551]},"properties":{"OBJECTID":21,"FACILITY":"CAROLYN BEATRICE PARKER ELEMENTARY","LOGO_URL":"https://cmsv2-assets.apptegy.net/uploads/29912/logo/32725/Parker_Flyers_-_Black_Oval.png","link":"https://www.alachuaschools.net/o/parker","FUNCTION_":"ELEMENTARY","SCHOOLCODE":"010031","GRADES":"PK-5","FULLADDR":"1912 NW 5TH AV"}},{"type":"Feature","id":22,"geometry":{"type":"Point","coordinates":[-82.401964344511,29.6785482826344]},"properties":{"OBJECTID":22,"FACILITY":"BUCHHOLZ HIGH SCHOOL","LOGO_URL":"https://cmsv2-assets.apptegy.net/uploads/29935/logo/32748/Buchholz_Bobcat_2025.png","link":"https://www.alachuaschools.net/o/buchholz","FUNCTION_":"HIGH","SCHOOLCODE":"010431","GRADES":"9-12","FULLADDR":"5510 NW 27TH AV"}},{"type":"Feature","id":23,"geometry":{"type":"Point","coordinates":[-82.6138270784061,29.6376705929161]},"properties":{"OBJECTID":23,"FACILITY":"NEWBERRY ELEMENTARY SCHOOL","LOGO_URL":"https://cmsv2-assets.apptegy.net/uploads/29910/logo/32723/Newberry_Elem_Paw_Print_-_Yellow_Oval_1.png","link":"https://www.alachuaschools.net/o/newberryes","FUNCTION_":"ELEMENTARY","SCHOOLCODE":"010531","GRADES":"PK-5","FULLADDR":"25705 SW 15TH AV"}},{"type":"Feature","id":24,"geometry":{"type":"Point","coordinates":[-82.2711937805118,29.6479446310338]},"properties":{"OBJECTID":24,"FACILITY":"LAKE FOREST ELEMENTARY SCHOOL","LOGO_URL":"https://cmsv2-assets.apptegy.net/uploads/29906/logo/32719/Lake_Forest_Dolphin_-_Black_Oval.png","link":"https://www.alachuaschools.net/o/lakeforest","FUNCTION_":"ELEMENTARY","SCHOOLCODE":"010071","GRADES":"PK-5","FULLADDR":"4401 SE 4TH AV"}},{"type":"Feature","id":25,"geometry":{"type":"Point","coordinates":[-82.3083719479077,29.6454287004963]},"properties":{"OBJECTID":25,"FACILITY":"WILLIAMS ELEMENTARY SCHOOL","LOGO_URL":"https://cmsv2-assets.apptegy.net/uploads/29918/logo/32731/Williams_Wildcat_-_Yellow_Oval_1.png","link":"https://www.alachuaschools.net/o/williams","FUNCTION_":"ELEMENTARY","SCHOOLCODE":"010111","GRADES":"PK-5","FULLADDR":"1245 SE 7TH AV"}},{"type":"Feature","id":26,"geometry":{"type":"Point","coordinates":[-82.309751701761,29.6422989716576]},"properties":{"OBJECTID":26,"FACILITY":"LINCOLN MIDDLE SCHOOL","LOGO_URL":"https://cmsv2-assets.apptegy.net/uploads/29922/logo/32735/Lincoln_Terrier_-_Yellow_Oval_2.png","link":"https://www.alachuaschools.net/o/lincoln","FUNCTION_":"MIDDLE","SCHOOLCODE":"010112","GRADES":"6-8","FULLADDR":"1001 SE 12TH ST"}},{"type":"Feature","id":27,"geometry":{"type":"Point","coordinates":[-82.2695877776982,29.63981393116]},"properties":{"OBJECTID":27,"FACILITY":"EASTSIDE HIGH SCHOOL","LOGO_URL":"https://cmsv2-assets.apptegy.net/uploads/29936/logo/32749/Eastside_Ram_-_Orange_Oval.png","link":"https://www.alachuaschools.net/o/eastside","FUNCTION_":"HIGH","SCHOOLCODE":"010421","GRADES":"9-12","FULLADDR":"1201 SE 43RD ST"}},{"type":"Feature","id":28,"geometry":{"type":"Point","coordinates":[-82.6153020753653,29.6426252201069]},"properties":{"OBJECTID":28,"FACILITY":"NEWBERRY HIGH SCHOOL","LOGO_URL":"https://cmsv2-assets.apptegy.net/uploads/29939/logo/32752/Newberry_High_School_1_-_Yellow_Oval_1.png","link":"https://www.alachuaschools.net/o/newberry-high","FUNCTION_":"HIGH","SCHOOLCODE":"010261","GRADES":"9-12","FULLADDR":"400 SW 258TH ST"}},{"type":"Feature","id":30,"geometry":{"type":"Point","coordinates":[-82.4203336339269,29.6113311950275]},"properties":{"OBJECTID":30,"FACILITY":"WILES ELEMENTARY SCHOOL","LOGO_URL":"https://cmsv2-assets.apptegy.net/uploads/29917/logo/32730/Wiles_Wildcat_-_Silver_Oval.png","link":"https://www.alachuaschools.net/o/wiles","FUNCTION_":"ELEMENTARY","SCHOOLCODE":"010501","GRADES":"PK-5","FULLADDR":"4601 SW 75TH ST"}},{"type":"Feature","id":31,"geometry":{"type":"Point","coordinates":[-82.3482174757219,29.6097275555583]},"properties":{"OBJECTID":31,"FACILITY":"IDYLWILD ELEMENTARY SCHOOL","LOGO_URL":"https://cmsv2-assets.apptegy.net/uploads/29904/logo/32717/Idylwild_Eagle_-_Silver_Oval.png","link":"https://www.alachuaschools.net/o/idylwild","FUNCTION_":"ELEMENTARY","SCHOOLCODE":"010321","GRADES":"PK-5","FULLADDR":"4601 SW 20TH TER"}},{"type":"Feature","id":32,"geometry":{"type":"Point","coordinates":[-82.0908895437294,29.5938960637136]},"properties":{"OBJECTID":32,"FACILITY":"SHELL ELEMENTARY SCHOOL","LOGO_URL":"https://cmsv2-assets.apptegy.net/uploads/29914/logo/32727/logo_template_300.png","link":"https://www.alachuaschools.net/o/shell","FUNCTION_":"ELEMENTARY","SCHOOLCODE":"010281","GRADES":"PK-6","FULLADDR":"21633 SE 65TH AV"}},{"type":"Feature","id":33,"geometry":{"type":"Point","coordinates":[-82.0937888452837,29.5896264304547]},"properties":{"OBJECTID":33,"FACILITY":"HAWTHORNE JR/SR HIGH SCHOOL","LOGO_URL":"https://cmsv2-assets.apptegy.net/uploads/29938/logo/32751/Hawthorne_Hornet_1_-_Orange_Oval_2.png","link":"https://www.alachuaschools.net/o/hawthorne","FUNCTION_":"JR/SR HIGH","SCHOOLCODE":"010201","GRADES":"7-12","FULLADDR":"21403 SE 69TH AV"}},{"type":"Feature","id":34,"geometry":{"type":"Point","coordinates":[-82.5229260919507,29.5200365571351]},"properties":{"OBJECTID":34,"FACILITY":"ARCHER COMMUNITY SCHOOL","LOGO_URL":"https://cmsv2-assets.apptegy.net/uploads/29898/logo/32711/Archer_Eagle_-_Yellow_Oval.png","link":"https://www.alachuaschools.net/o/archer","FUNCTION_":"ELEMENTARY","SCHOOLCODE":"010171","GRADES":"PK-5","FULLADDR":"14533 SW 170TH ST"}},{"type":"Feature","id":35,"geometry":{"type":"Point","coordinates":[-82.4445481794499,29.629043004795]},"properties":{"OBJECTID":35,"FACILITY":"CHILES ELEMENTARY SCHOOL","LOGO_URL":"https://cmsv2-assets.apptegy.net/uploads/29899/logo/32712/Chiles_Cheetah_-_Silver_Oval.png","link":"https://www.alachuaschools.net/o/chiles","FUNCTION_":"ELEMENTARY","SCHOOLCODE":"010510","GRADES":"PK-5","FULLADDR":"2525 SCHOOL HOUSE RD"}},{"type":"Feature","id":36,"geometry":{"type":"Point","coordinates":[-82.4207025827585,29.6074898492351]},"properties":{"OBJECTID":36,"FACILITY":"KANAPAHA MIDDLE SCHOOL","LOGO_URL":"https://cmsv2-assets.apptegy.net/uploads/29921/logo/32734/Kanapaha_Coyote_-_Black_Oval.png","link":"https://www.alachuaschools.net/o/kanapaha","FUNCTION_":"MIDDLE","SCHOOLCODE":"010502","GRADES":"6-8","FULLADDR":"5005 SW 75TH ST"}},{"type":"Feature","id":37,"geometry":{"type":"Point","coordinates":[-82.4928614371368,29.7798901849717]},"properties":{"OBJECTID":37,"FACILITY":"IRBY ELEMENTARY SCHOOL","LOGO_URL":"https://cmsv2-assets.apptegy.net/uploads/29905/logo/32718/Irby_Eagle_-_Red_Oval_1.png","link":"https://www.alachuaschools.net/o/irby","FUNCTION_":"ELEMENTARY","SCHOOLCODE":"010571","GRADES":"PK-2","FULLADDR":"13505 NW 140TH ST"}},{"type":"Feature","id":38,"geometry":{"type":"Point","coordinates":[-82.3543530525232,29.6964819312512]},"properties":{"OBJECTID":38,"FACILITY":"NORTON ELEMENTARY SCHOOL","LOGO_URL":"https://cmsv2-assets.apptegy.net/uploads/29911/logo/32724/Norton_Knight_-_Silver_Oval.png","link":"https://www.alachuaschools.net/o/norton","FUNCTION_":"ELEMENTARY","SCHOOLCODE":"010541","GRADES":"PK-5","FULLADDR":"2200 NW 45TH AV"}},{"type":"Feature","id":39,"geometry":{"type":"Point","coordinates":[-82.2857549660525,29.6551695097255]},"properties":{"OBJECTID":39,"FACILITY":"LOFTEN HIGH SCHOOL","LOGO_URL":"https://cmsv2-assets.apptegy.net/uploads/29940/logo/32753/Loften_Eagle_-_Black_Oval.png","link":"https://www.alachuaschools.net/o/pamloften","FUNCTION_":"HIGH","SCHOOLCODE":"010411","GRADES":"9-12","FULLADDR":"3000 E UNIVERSITY AV"}},{"type":"Feature","id":40,"geometry":{"type":"Point","coordinates":[-82.6054875583196,29.6409786680486]},"properties":{"OBJECTID":40,"FACILITY":"OAK VIEW MIDDLE SCHOOL","LOGO_URL":"https://cmsv2-assets.apptegy.net/uploads/29924/logo/32737/Oak_View_Paw_Print_-_Yellow_Oval_2.png","link":"https://www.alachuaschools.net/o/oak-view","FUNCTION_":"MIDDLE","SCHOOLCODE":"010591","GRADES":"6-8","FULLADDR":"1203 SW 250TH ST"}},{"type":"Feature","id":41,"geometry":{"type":"Point","coordinates":[-82.4407346538085,29.6713681833286]},"properties":{"OBJECTID":41,"FACILITY":"HIDDEN OAK ELEMENTARY SCHOOL","LOGO_URL":"https://cmsv2-assets.apptegy.net/uploads/29902/logo/32715/Hidden_Oak_Owl_-_Gray_Oval.png","link":"https://www.alachuaschools.net/o/hiddenoak","FUNCTION_":"ELEMENTARY","SCHOOLCODE":"010482","GRADES":"PK-5","FULLADDR":"2100 FORT CLARKE BLVD"}},{"type":"Feature","id":43,"geometry":{"type":"Point","coordinates":[-82.4708834272825,29.6174569071851]},"properties":{"OBJECTID":43,"FACILITY":"TERWILLIGER ELEMENTARY SCHOOL","LOGO_URL":"https://cmsv2-assets.apptegy.net/uploads/29916/logo/32729/Terwilliger_Twisters_-_Red_Oval.png","link":"https://www.alachuaschools.net/o/terwilliger","FUNCTION_":"ELEMENTARY","SCHOOLCODE":"010311","GRADES":"PK-5","FULLADDR":"3999 SW 122ND ST"}}]}